[{"OBJECT_NAME":"STARLINK-34545","OBJECT_ID":"2025-167AD","EPOCH":"2026-03-09T07:12:22.357728","MEAN_MOTION":15.30141572,"ECCENTRICITY":0.00010135,"INCLINATION":53.1607,"RA_OF_ASC_NODE":28.2176,"ARG_OF_PERICENTER":74.9849,"MEAN_ANOMALY":285.1264,"EPHEMERIS_TYPE":0,"CLASSIFICATION_TYPE":"U","NORAD_CAT_ID":65105,"ELEMENT_SET_NO":999,"REV_AT_EPOCH":3342,"BSTAR":0.00092650801,"MEAN_MOTION_DOT":0.00027132,"MEAN_MOTION_DDOT":0},{"OBJECT_NAME":"COSMOS 1782","OBJECT_ID":"1986-074A","EPOCH":"2026-03-09T22:40:22.374624","MEAN_MOTION":15.33314157,"ECCENTRICITY":0.00054418,"INCLINATION":82.5242,"RA_OF_ASC_NODE":238.1482,"ARG_OF_PERICENTER":197.7479,"MEAN_ANOMALY":162.3574,"EPHEMERIS_TYPE":0,"CLASSIFICATION_TYPE":"U","NORAD_CAT_ID":16986,"ELEMENT_SET_NO":999,"REV_AT_EPOCH":13134,"BSTAR":0.00042191031,"MEAN_MOTION_DOT":0.00013623,"MEAN_MOTION_DDOT":0}]
